[{"OBJECT_NAME":"STARLINK-34480","OBJECT_ID":"2025-129R","EPOCH":"2026-03-09T23:34:57.825408","MEAN_MOTION":14.98332626,"ECCENTRICITY":0.00034043,"INCLINATION":70.001,"RA_OF_ASC_NODE":73.6158,"ARG_OF_PERICENTER":268.4976,"MEAN_ANOMALY":91.5793,"EPHEMERIS_TYPE":0,"CLASSIFICATION_TYPE":"U","NORAD_CAT_ID":64427,"ELEMENT_SET_NO":999,"REV_AT_EPOCH":4133,"BSTAR":0.00032514467,"MEAN_MOTION_DOT":3.789e-5,"MEAN_MOTION_DDOT":0},{"OBJECT_NAME":"CINEMA-2 (KHUSAT-2)","OBJECT_ID":"2013-066J","EPOCH":"2026-03-09T17:51:52.526880","MEAN_MOTION":14.83992002,"ECCENTRICITY":0.00772725,"INCLINATION":97.8811,"RA_OF_ASC_NODE":0.8363,"ARG_OF_PERICENTER":94.4582,"MEAN_ANOMALY":266.5465,"EPHEMERIS_TYPE":0,"CLASSIFICATION_TYPE":"U","NORAD_CAT_ID":39424,"ELEMENT_SET_NO":999,"REV_AT_EPOCH":66134,"BSTAR":0.00039855246,"MEAN_MOTION_DOT":3.441e-5,"MEAN_MOTION_DDOT":0}]
